[{"OBJECT_NAME":"STARLINK-2569","OBJECT_ID":"2021-036B","EPOCH":"2026-03-10T00:00:02.999808","MEAN_MOTION":15.23820477,"ECCENTRICITY":0.00017097,"INCLINATION":53.129,"RA_OF_ASC_NODE":9.5309,"ARG_OF_PERICENTER":96.8785,"MEAN_ANOMALY":250.7742,"EPHEMERIS_TYPE":0,"CLASSIFICATION_TYPE":"U","NORAD_CAT_ID":48277,"ELEMENT_SET_NO":999,"REV_AT_EPOCH":574,"BSTAR":-0.0006504466,"MEAN_MOTION_DOT":-0.00016175,"MEAN_MOTION_DDOT":0},{"OBJECT_NAME":"OBJECT E","OBJECT_ID":"2025-108E","EPOCH":"2026-03-09T22:47:33.087264","MEAN_MOTION":15.21687985,"ECCENTRICITY":0.00120507,"INCLINATION":97.4733,"RA_OF_ASC_NODE":146.3251,"ARG_OF_PERICENTER":355.0627,"MEAN_ANOMALY":5.0488,"EPHEMERIS_TYPE":0,"CLASSIFICATION_TYPE":"U","NORAD_CAT_ID":64091,"ELEMENT_SET_NO":999,"REV_AT_EPOCH":4434,"BSTAR":0.00076441924,"MEAN_MOTION_DOT":0.00017283,"MEAN_MOTION_DDOT":0}]
